{"type": "FeatureCollection", "features": [ {"type": "Feature", "properties": {"norad_id": 38953, "name": "BEIDOU-2 G6 (C02)", "group": "beidou", "lat": -3.9784223094423963, "lon": -12.867498480573895, "alt_km": 35755.01159476018, "timestamp": "2025-12-21T11:31:43.120815+00:00", "meta": {"OBJECT_NAME": "BEIDOU-2 G6 (C02)", "OBJECT_ID": "2012-059A", "EPOCH": "2025-12-21T01:36:53.216640", "MEAN_MOTION": 1.00268834, "ECCENTRICITY": 0.000827, "INCLINATION": 3.9692, "RA_OF_ASC_NODE": 75.4251, "ARG_OF_PERICENTER": 292.3777, "MEAN_ANOMALY": 190.2509, "EPHEMERIS_TYPE": 0, "CLASSIFICATION_TYPE": "U", "NORAD_CAT_ID": 38953, "ELEMENT_SET_NO": 999, "REV_AT_EPOCH": 4812, "BSTAR": 0, "MEAN_MOTION_DOT": -1.54e-06, "MEAN_MOTION_DDOT": 0}, "tle": {"line1": "1 38953U 12059A   25355.06728260 -.00000154  00000+0  00000+0 0  9995", "line2": "2 38953   3.9692  75.4251 0008270 292.3777 190.2509  1.00268834 48120"}}, "geometry": {"type": "Point", "coordinates": [-12.867498480573895, -3.9784223094423963]}}, {"type": "Feature", "properties": {"norad_id": 40549, "name": "BEIDOU-3S IGSO-1S (C31)", "group": "beidou", "lat": 41.18957562807099, "lon": -14.219534739072436, "alt_km": 35881.87477826529, "timestamp": "2025-12-21T11:31:43.120828+00:00", "meta": {"OBJECT_NAME": "BEIDOU-3S IGSO-1S (C31)", "OBJECT_ID": "2015-019A", "EPOCH": "2025-12-18T19:55:38.829792", "MEAN_MOTION": 1.00292047, "ECCENTRICITY": 0.0036331, "INCLINATION": 49.5404, "RA_OF_ASC_NODE": 297.6395, "ARG_OF_PERICENTER": 194.0028, "MEAN_ANOMALY": 349.3621, "EPHEMERIS_TYPE": 0, "CLASSIFICATION_TYPE": "U", "NORAD_CAT_ID": 40549, "ELEMENT_SET_NO": 999, "REV_AT_EPOCH": 3926, "BSTAR": 0, "MEAN_MOTION_DOT": -1.83e-06, "MEAN_MOTION_DDOT": 0}, "tle": {"line1": "1 40549U 15019A   25352.83031053 -.00000183  00000+0  00000+0 0  9999", "line2": "2 40549  49.5404 297.6395 0036331 194.0028 349.3621  1.00292047 39264"}}, "geometry": {"type": "Point", "coordinates": [-14.219534739072436, 41.18957562807099]}}, {"type": "Feature", "properties": {"norad_id": 40748, "name": "BEIDOU-3S M2S (C58)", "group": "beidou", "lat": -52.463506589627826, "lon": -117.35591332419847, "alt_km": 21501.56521898208, "timestamp": "2025-12-21T11:31:43.120841+00:00", "meta": {"OBJECT_NAME": "BEIDOU-3S M2S (C58)", "OBJECT_ID": "2015-037A", "EPOCH": "2025-12-21T01:20:10.891968", "MEAN_MOTION": 1.86229521, "ECCENTRICITY": 0.0011954, "INCLINATION": 55.0313, "RA_OF_ASC_NODE": 308.1781, "ARG_OF_PERICENTER": 270.2821, "MEAN_ANOMALY": 89.5753, "EPHEMERIS_TYPE": 0, "CLASSIFICATION_TYPE": "U", "NORAD_CAT_ID": 40748, "ELEMENT_SET_NO": 999, "REV_AT_EPOCH": 7080, "BSTAR": 0, "MEAN_MOTION_DOT": -6.4e-07, "MEAN_MOTION_DDOT": 0}, "tle": {"line1": "1 40748U 15037A   25355.05568162 -.00000064  00000+0  00000+0 0  9991", "line2": "2 40748  55.0313 308.1781 0011954 270.2821  89.5753  1.86229521 70800"}}, "geometry": {"type": "Point", "coordinates": [-117.35591332419847, -52.463506589627826]}}, {"type": "Feature", "properties": {"norad_id": 40749, "name": "BEIDOU-3S M1S (C57)", "group": "beidou", "lat": 38.04218306457527, "lon": 94.96011297959514, "alt_km": 21527.66354432716, "timestamp": "2025-12-21T11:31:43.120853+00:00", "meta": {"OBJECT_NAME": "BEIDOU-3S M1S (C57)", "OBJECT_ID": "2015-037B", "EPOCH": "2025-12-19T03:17:32.841888", "MEAN_MOTION": 1.86254044, "ECCENTRICITY": 0.0003631, "INCLINATION": 55.0296, "RA_OF_ASC_NODE": 308.2337, "ARG_OF_PERICENTER": 1.0538, "MEAN_ANOMALY": 358.9355, "EPHEMERIS_TYPE": 0, "CLASSIFICATION_TYPE": "U", "NORAD_CAT_ID": 40749, "ELEMENT_SET_NO": 999, "REV_AT_EPOCH": 7077, "BSTAR": 0, "MEAN_MOTION_DOT": -7.8e-07, "MEAN_MOTION_DDOT": 0}, "tle": {"line1": "1 40749U 15037B   25353.13718567 -.00000078  00000+0  00000+0 0  9990", "line2": "2 40749  55.0296 308.2337 0003631   1.0538 358.9355  1.86254044 70772"}}, "geometry": {"type": "Point", "coordinates": [94.96011297959514, 38.04218306457527]}}, {"type": "Feature", "properties": {"norad_id": 40938, "name": "BEIDOU-3S IGSO-2S (C56)", "group": "beidou", "lat": 48.98231590702427, "lon": 2.2181249784940658, "alt_km": 35785.957670910124, "timestamp": "2025-12-21T11:31:43.120866+00:00", "meta": {"OBJECT_NAME": "BEIDOU-3S IGSO-2S (C56)", "OBJECT_ID": "2015-053A", "EPOCH": "2025-12-20T17:06:26.975808", "MEAN_MOTION": 1.00268356, "ECCENTRICITY": 0.00605652, "INCLINATION": 49.4983, "RA_OF_ASC_NODE": 260.9119, "ARG_OF_PERICENTER": 188.6737, "MEAN_ANOMALY": 352.4367, "EPHEMERIS_TYPE": 0, "CLASSIFICATION_TYPE": "U", "NORAD_CAT_ID": 40938, "ELEMENT_SET_NO": 999, "REV_AT_EPOCH": 3756, "BSTAR": 0, "MEAN_MOTION_DOT": -1.06e-06, "MEAN_MOTION_DDOT": 0}, "tle": {"line1": "1 40938U 15053A   25354.71281222 -.00000106  00000+0  00000+0 0  9998", "line2": "2 40938  49.4983 260.9119 0060565 188.6737 352.4367  1.00268356 37565"}}, "geometry": {"type": "Point", "coordinates": [2.2181249784940658, 48.98231590702427]}}, {"type": "Feature", "properties": {"norad_id": 41434, "name": "BEIDOU-2 IGSO-6 (C13)", "group": "beidou", "lat": -35.81347102539585, "lon": 15.207317716202398, "alt_km": 35771.048124834924, "timestamp": "2025-12-21T11:31:43.120879+00:00", "meta": {"OBJECT_NAME": "BEIDOU-2 IGSO-6 (C13)", "OBJECT_ID": "2016-021A", "EPOCH": "2025-12-18T14:33:38.837664", "MEAN_MOTION": 1.00292299, "ECCENTRICITY": 0.00610054, "INCLINATION": 59.9732, "RA_OF_ASC_NODE": 39.8392, "ARG_OF_PERICENTER": 230.2031, "MEAN_ANOMALY": 129.1398, "EPHEMERIS_TYPE": 0, "CLASSIFICATION_TYPE": "U", "NORAD_CAT_ID": 41434, "ELEMENT_SET_NO": 999, "REV_AT_EPOCH": 3566, "BSTAR": 0, "MEAN_MOTION_DOT": -1.41e-06, "MEAN_MOTION_DDOT": 0}, "tle": {"line1": "1 41434U 16021A   25352.60669951 -.00000141  00000+0  00000+0 0  9990", "line2": "2 41434  59.9732  39.8392 0061005 230.2031 129.1398  1.00292299 35667"}}, "geometry": {"type": "Point", "coordinates": [15.207317716202398, -35.81347102539585]}}, {"type": "Feature", "properties": {"norad_id": 41586, "name": "BEIDOU-2 G7 (C03)", "group": "beidou", "lat": -1.4374018029477587, "lon": 13.63940163308105, "alt_km": 35774.744721990995, "timestamp": "2025-12-21T11:31:43.120893+00:00", "meta": {"OBJECT_NAME": "BEIDOU-2 G7 (C03)", "OBJECT_ID": "2016-037A", "EPOCH": "2025-12-19T15:57:04.317984", "MEAN_MOTION": 1.00271972, "ECCENTRICITY": 0.0005143, "INCLINATION": 1.7733, "RA_OF_ASC_NODE": 67.8469, "ARG_OF_PERICENTER": 2.9481, "MEAN_ANOMALY": 7.4377, "EPHEMERIS_TYPE": 0, "CLASSIFICATION_TYPE": "U", "NORAD_CAT_ID": 41586, "ELEMENT_SET_NO": 999, "REV_AT_EPOCH": 509, "BSTAR": 0, "MEAN_MOTION_DOT": -3.3e-06, "MEAN_MOTION_DDOT": 0}, "tle": {"line1": "1 41586U 16037A   25353.66463331 -.00000330  00000+0  00000+0 0  9996", "line2": "2 41586   1.7733  67.8469 0005143   2.9481   7.4377  1.00271972  5095"}}, "geometry": {"type": "Point", "coordinates": [13.63940163308105, -1.4374018029477587]}}, {"type": "Feature", "properties": {"norad_id": 43001, "name": "BEIDOU-3 M1 (C19)", "group": "beidou", "lat": 41.99297858439213, "lon": 105.44362138552736, "alt_km": 21532.54688515492, "timestamp": "2025-12-21T11:31:43.120906+00:00", "meta": {"OBJECT_NAME": "BEIDOU-3 M1 (C19)", "OBJECT_ID": "2017-069A", "EPOCH": "2025-12-19T06:04:23.941632", "MEAN_MOTION": 1.86231412, "ECCENTRICITY": 0.0009566, "INCLINATION": 56.5322, "RA_OF_ASC_NODE": 69.0186, "ARG_OF_PERICENTER": 302.1864, "MEAN_ANOMALY": 57.7554, "EPHEMERIS_TYPE": 0, "CLASSIFICATION_TYPE": "U", "NORAD_CAT_ID": 43001, "ELEMENT_SET_NO": 999, "REV_AT_EPOCH": 5525, "BSTAR": 0, "MEAN_MOTION_DOT": -5.5e-07, "MEAN_MOTION_DDOT": 0}, "tle": {"line1": "1 43001U 17069A   25353.25305488 -.00000055  00000+0  00000+0 0  9993", "line2": "2 43001  56.5322  69.0186 0009566 302.1864  57.7554  1.86231412 55251"}}, "geometry": {"type": "Point", "coordinates": [105.44362138552736, 41.99297858439213]}}, {"type": "Feature", "properties": {"norad_id": 43002, "name": "BEIDOU-3 M2 (C20)", "group": "beidou", "lat": 56.27230292345437, "lon": 167.3890425479237, "alt_km": 21531.82316742128, "timestamp": "2025-12-21T11:31:43.120918+00:00", "meta": {"OBJECT_NAME": "BEIDOU-3 M2 (C20)", "OBJECT_ID": "2017-069B", "EPOCH": "2025-12-19T04:35:39.539904", "MEAN_MOTION": 1.86231009, "ECCENTRICITY": 0.0006519, "INCLINATION": 56.532, "RA_OF_ASC_NODE": 69.0565, "ARG_OF_PERICENTER": 330.2695, "MEAN_ANOMALY": 29.7276, "EPHEMERIS_TYPE": 0, "CLASSIFICATION_TYPE": "U", "NORAD_CAT_ID": 43002, "ELEMENT_SET_NO": 999, "REV_AT_EPOCH": 5524, "BSTAR": 0, "MEAN_MOTION_DOT": -5.5e-07, "MEAN_MOTION_DDOT": 0}, "tle": {"line1": "1 43002U 17069B   25353.19142986 -.00000055  00000+0  00000+0 0  9999", "line2": "2 43002  56.5320  69.0565 0006519 330.2695  29.7276  1.86231009 55241"}}, "geometry": {"type": "Point", "coordinates": [167.3890425479237, 56.27230292345437]}}, {"type": "Feature", "properties": {"norad_id": 43107, "name": "BEIDOU-3 M7 (C27)", "group": "beidou", "lat": -54.39045696141581, "lon": -146.63059107718638, "alt_km": 21541.50848738168, "timestamp": "2025-12-21T11:31:43.120931+00:00", "meta": {"OBJECT_NAME": "BEIDOU-3 M7 (C27)", "OBJECT_ID": "2018-003A", "EPOCH": "2025-12-21T01:58:18.376032", "MEAN_MOTION": 1.86232609, "ECCENTRICITY": 0.0002969, "INCLINATION": 54.4892, "RA_OF_ASC_NODE": 308.5243, "ARG_OF_PERICENTER": 67.3081, "MEAN_ANOMALY": 292.7179, "EPHEMERIS_TYPE": 0, "CLASSIFICATION_TYPE": "U", "NORAD_CAT_ID": 43107, "ELEMENT_SET_NO": 999, "REV_AT_EPOCH": 5403, "BSTAR": 0, "MEAN_MOTION_DOT": -6.5e-07, "MEAN_MOTION_DDOT": 0}, "tle": {"line1": "1 43107U 18003A   25355.08215713 -.00000065  00000+0  00000+0 0  9994", "line2": "2 43107  54.4892 308.5243 0002969  67.3081 292.7179  1.86232609 54031"}}, "geometry": {"type": "Point", "coordinates": [-146.63059107718638, -54.39045696141581]}}]}